GSAT-10-GAGAN-PRN 128
1 38779U 12051B   23124.54793822 -.00000151  00000+0  00000+0 0  9991
2 38779   0.0251 258.3678 0001809  80.9664 163.1500  1.00273132 38695
